NORAD_CAT_ID,OBJECT_NAME,OBJECT_TYPE,EPOCH,MEAN_MOTION,ECCENTRICITY,INCLINATION,RA_OF_ASC_NODE,ARG_OF_PERICENTER,MEAN_ANOMALY,BSTAR,MEAN_MOTION_DOT,MEAN_MOTION_DDOT,TLE_LINE0,TLE_LINE1,TLE_LINE2,SEMIMAJOR_AXIS,PERIOD,APOGEE,PERIGEE,DECAYED
53793.0,STARLINK-4728,PAYLOAD,2022-11-16 00:00:00,15.24711555,0.0001641999999999,53.2177,304.7027,38.9612,293.772,-0.049706,-0.01149705,0.0,0 STARLINK-4728,1 53793U 22111W   22320.00001157 -.01149705  00000-0 -49706-1 0  9993,2 53793  53.2177 304.7027 0001642  38.9612 293.7720 15.24711555 10264,6869.7890000000025,94.444,492.782,490.526,0.0
53793.0,STARLINK-4728,PAYLOAD,2022-11-16 14:00:01,15.23288898,0.0001717,53.2173,302.023,38.7915,256.1588,-0.052047,-0.01153289,0.0,0 STARLINK-4728,1 53793U 22111W   22320.58335648 -.01153289  00000-0 -52047-1 0  9995,2 53793  53.2173 302.0230 0001717  38.7915 256.1588 15.23288898  1302,6874.065,94.532,497.111,494.75,0.0
53793.0,STARLINK-4728,PAYLOAD,2022-11-16 20:00:01,15.22676386,0.0001779,53.2173,300.875,42.3606,183.9626,-0.05281,-0.01149359,0.0,0 STARLINK-4728,1 53793U 22111W   22320.83334491 -.01149359  00000-0 -52810-1 0  9999,2 53793  53.2173 300.8750 0001779  42.3606 183.9626 15.22676386 10381,6875.909000000002,94.57,498.997,496.55,0.0
53793.0,STARLINK-4728,PAYLOAD,2022-11-16 22:00:08,15.2247166,0.0001647,53.2176,300.4925,39.9834,283.807,-0.053024,-0.01147163,0.0,0 STARLINK-4728,1 53793U 22111W   22320.91675926 -.01147163  00000-0 -53024-1 0  9998,2 53793  53.2176 300.4925 0001647  39.9834 283.8070 15.22471660  1306,6876.525,94.583,499.523,497.257,0.0
53793.0,STARLINK-4728,PAYLOAD,2022-11-17 14:00:01,15.20871218,0.0001911,53.2163,297.4416,28.9216,348.3928,-0.057578,-0.01184924,0.0,0 STARLINK-4728,1 53793U 22111W   22321.58334491 -.01184924  00000-0 -57578-1 0  9995,2 53793  53.2163 297.4416 0001911  28.9216 348.3928 15.20871218  1308,6881.348000000001,94.683,504.528,501.898,0.0
53793.0,STARLINK-4728,PAYLOAD,2022-11-17 22:00:00,15.20048503,0.0001932,53.2164,295.9172,30.7867,12.0565,-0.05825,-0.01171278,0.0,0 STARLINK-4728,1 53793U 22111W   22321.91667824 -.01171278  00000-0 -58250-1 0  9997,2 53793  53.2164 295.9172 0001932  30.7867  12.0565 15.20048503  1302,6883.831,94.734,507.026,504.366,0.0
53793.0,STARLINK-4728,PAYLOAD,2022-11-18 14:00:01,15.18414043,0.000188,53.2166,292.8771,37.3421,53.6199,-0.060635,-0.01163133,0.0,0 STARLINK-4728,1 53793U 22111W   22322.58334491 -.01163133  00000-0 -60635-1 0  9993,2 53793  53.2166 292.8771 0001880  37.3421  53.6199 15.18414043  1303,6888.77,94.836,511.93,509.34,0.0
53793.0,STARLINK-4728,PAYLOAD,2022-11-18 22:00:00,15.17614901,0.0001997,53.2163,291.3584,34.6773,78.8671,-0.06307,-0.0118068,0.0,0 STARLINK-4728,1 53793U 22111W   22322.91667824 -.01180680  00000-0 -63070-1 0  9991,2 53793  53.2163 291.3584 0001997  34.6773  78.8671 15.17614901 10707,6891.188,94.886,514.43,511.677,0.0
53793.0,STARLINK-4728,PAYLOAD,2022-11-19 14:00:01,15.16001946,0.0002013,53.2163,288.3298,35.2346,120.5513,-0.067401,-0.01202611,0.0,0 STARLINK-4728,1 53793U 22111W   22323.58334491 -.01202611  00000-0 -67401-1 0  9997,2 53793  53.2163 288.3298 0002013  35.2346 120.5513 15.16001946  1302,6896.075,94.987,519.3290000000002,516.552,0.0
53793.0,STARLINK-4728,PAYLOAD,2022-11-19 22:00:00,15.15173893,0.0001935,53.2162,286.8168,41.9614,133.4881,-0.067671,-0.01181022,0.0,0 STARLINK-4728,1 53793U 22111W   22323.91667824 -.01181022  00000-0 -67671-1 0  9994,2 53793  53.2162 286.8168 0001935  41.9614 133.4881 15.15173893  1305,6898.5880000000025,95.039,521.788,519.118,0.0
53793.0,STARLINK-4728,PAYLOAD,2022-11-20 06:00:00,15.14349194,0.0001858,53.2165,285.3086,47.9687,146.1641,-0.068317,-0.01165913,0.0,0 STARLINK-4728,1 53793U 22111W   22324.25001157 -.01165913  00000-0 -68317-1 0  9992,2 53793  53.2165 285.3086 0001858  47.9687 146.1641 15.14349194 10900,6901.092,95.09,524.239,521.675,0.0
53793.0,STARLINK-4728,PAYLOAD,2022-11-20 14:00:01,15.13565465,0.0001938,53.2162,283.7993,41.4228,170.3978,-0.072572,-0.01207665,0.0,0 STARLINK-4728,1 53793U 22111W   22324.58334491 -.01207665  00000-0 -72572-1 0  9997,2 53793  53.2162 283.7993 0001938  41.4228 170.3978 15.13565465  1301,6903.474,95.14,526.677,524.001,0.0
53793.0,STARLINK-4728,PAYLOAD,2022-11-20 22:00:00,15.12707211,0.0001857,53.2175,282.2928,43.2573,185.3088,-0.070247,-0.01146152,0.0,0 STARLINK-4728,1 53793U 22111W   22324.91667824 -.01146152  00000-0 -70247-1 0  9993,2 53793  53.2175 282.2928 0001857  43.2573 185.3088 15.12707211  1304,6906.085,95.194,529.2330000000002,526.668,0.0
53793.0,STARLINK-4728,PAYLOAD,2022-11-21 08:00:01,15.11690138,0.0001643,53.2168,280.4142,42.0195,296.075,-0.072287,-0.01146216,0.0,0 STARLINK-4728,1 53793U 22111W   22325.33334491 -.01146216  00000-0 -72287-1 0  9998,2 53793  53.2168 280.4142 0001643  42.0195 296.0750 15.11690138 11073,6909.182,95.258,532.183,529.9119999999998,0.0
53793.0,STARLINK-4728,PAYLOAD,2022-11-21 14:00:01,15.11113686,0.0001874,53.2163,279.2859,40.2144,218.8487,-0.076753,-0.01193491,0.0,0 STARLINK-4728,1 53793U 22111W   22325.58334491 -.01193491  00000-0 -76753-1 0  9994,2 53793  53.2163 279.2859 0001874  40.2144 218.8487 15.11113686  1301,6910.939,95.294,534.099,531.509,0.0
53793.0,STARLINK-4728,PAYLOAD,2022-11-21 22:00:00,15.10292229,0.0001739,53.2161,277.7846,43.2106,229.6473,-0.077942,-0.01185274,0.0,0 STARLINK-4728,1 53793U 22111W   22325.91667824 -.01185274  00000-0 -77942-1 0  9991,2 53793  53.2161 277.7846 0001739  43.2106 229.6473 15.10292229  1304,6913.445,95.346,536.512,534.1080000000002,0.0
53793.0,STARLINK-4728,PAYLOAD,2022-11-22 14:00:01,15.08881671,0.0001966,53.213,274.7861,43.2161,254.4644,-0.0047458,-0.00075118,0.0,0 STARLINK-4728,1 53793U 22111W   22326.58335648 -.00075118  00000-0 -47458-2 0  9995,2 53793  53.2130 274.7861 0001966  43.2161 254.4644 15.08881671 11250,6917.753000000002,95.435,540.9780000000002,538.258,0.0
53793.0,STARLINK-4728,PAYLOAD,2022-11-22 22:00:00,15.08856311,0.0001908,53.2142,273.2886,45.7535,263.4748,8.680299999999999e-05,1.094e-05,0.0,0 STARLINK-4728,1 53793U 22111W   22326.91667824  .00001094  00000-0  86803-4 0  9995,2 53793  53.2142 273.2886 0001908  45.7535 263.4748 15.08856311 11317,6917.831,95.437,541.015,538.376,0.0
53793.0,STARLINK-4728,PAYLOAD,2022-11-23 14:00:01,15.088603,0.0001922,53.2152,270.2957,41.2859,291.1816,-0.0024832,-0.00039614,0.0,0 STARLINK-4728,1 53793U 22111W   22327.58334491 -.00039614  00000-0 -24832-2 0  9993,2 53793  53.2152 270.2957 0001922  41.2859 291.1816 15.08860300  1305,6917.818,95.436,541.013,538.354,0.0
53793.0,STARLINK-4728,PAYLOAD,2022-11-23 22:00:00,15.0886171,0.0001854,53.2155,268.7992,42.3723,301.6863,-0.0029241,-0.00046553,0.0,0 STARLINK-4728,1 53793U 22111W   22327.91667824 -.00046553  00000-0 -29241-2 0  9998,2 53793  53.2155 268.7992 0001854  42.3723 301.6863 15.08861710  1300,6917.814,95.436,540.962,538.396,0.0
53793.0,STARLINK-4728,PAYLOAD,2022-11-24 00:00:00,15.08864834,0.0001924,53.2154,268.4257,40.7187,36.2406,-0.0044807,-0.00070946,0.0,0 STARLINK-4728,1 53793U 22111W   22328.00001157 -.00070946  00000-0 -44807-2 0  9998,2 53793  53.2154 268.4257 0001924  40.7187  36.2406 15.08864834 11477,6917.804,95.436,541.0,538.3380000000002,0.0
53793.0,STARLINK-4728,PAYLOAD,2022-11-24 14:00:01,15.08834954,0.0001897,53.2156,265.8065,40.3681,326.8716,-0.00097401,-0.00015754,0.0,0 STARLINK-4728,1 53793U 22111W   22328.58334491 -.00015754  00000-0 -97401-3 0  9996,2 53793  53.2156 265.8065 0001897  40.3681 326.8716 15.08834954  1304,6917.896,95.438,541.073,538.448,0.0
53793.0,STARLINK-4728,PAYLOAD,2022-11-24 22:00:00,15.08834948,0.000195,53.2158,264.3103,44.6745,334.145,-0.0016721,-0.00026798,0.0,0 STARLINK-4728,1 53793U 22111W   22328.91667824 -.00026798  00000-0 -16721-2 0  9997,2 53793  53.2158 264.3103 0001950  44.6745 334.1450 15.08834948  1301,6917.896,95.438,541.11,538.4119999999998,0.0
53793.0,STARLINK-4728,PAYLOAD,2022-11-25 14:00:01,15.08823315,0.0001983,53.2156,261.3176,45.122,356.8498,0.0011194,0.00017564,0.0,0 STARLINK-4728,1 53793U 22111W   22329.58334491  .00017564  00000-0  11194-2 0  9990,2 53793  53.2156 261.3176 0001983  45.1220 356.8498 15.08823315 11711,6917.931,95.439,541.168,538.425,0.0
53793.0,STARLINK-4728,PAYLOAD,2022-11-25 22:00:00,15.08857388,0.0002013,53.2156,259.8217,47.0576,6.4914,-0.00067855,-0.00011077,0.0,0 STARLINK-4728,1 53793U 22111W   22329.91667824 -.00011077  00000-0 -67855-3 0  9997,2 53793  53.2156 259.8217 0002013  47.0576   6.4914 15.08857388  1301,6917.8269999999975,95.436,541.085,538.3,0.0
53793.0,STARLINK-4728,PAYLOAD,2022-11-26 14:00:01,15.08860803,0.0001973,53.215,256.8286,46.1872,30.5931,-0.0022521,-0.00035973,0.0,0 STARLINK-4728,1 53793U 22111W   22330.58334491 -.00035973  00000-0 -22521-2 0  9994,2 53793  53.2150 256.8286 0001973  46.1872  30.5931 15.08860803  1304,6917.816999999999,95.436,541.047,538.317,0.0
53793.0,STARLINK-4728,PAYLOAD,2022-11-26 22:00:00,15.08842384,0.0002045,53.2148,255.3328,48.2597,40.1224,-0.0019665,-0.00031452,0.0,0 STARLINK-4728,1 53793U 22111W   22330.91667824 -.00031452  00000-0 -19665-2 0  9993,2 53793  53.2148 255.3328 0002045  48.2597  40.1224 15.08842384 11914,6917.873000000001,95.437,541.153,538.323,0.0
53793.0,STARLINK-4728,PAYLOAD,2022-11-27 14:00:01,15.08807775,0.0001979,53.2141,252.3396,47.7656,63.7925,0.00055356,8.525e-05,0.0,0 STARLINK-4728,1 53793U 22111W   22331.58334491  .00008525  00000-0  55356-3 0  9999,2 53793  53.2141 252.3396 0001979  47.7656  63.7925 15.08807775  1300,6917.979,95.44,541.2130000000002,538.475,0.0
53793.0,STARLINK-4728,PAYLOAD,2022-11-27 22:00:00,15.08830518,0.0002056,53.214,250.8439,48.5707,74.5409,-0.0014856,-0.00023848,0.0,0 STARLINK-4728,1 53793U 22111W   22331.91667824 -.00023848  00000-0 -14856-2 0  9991,2 53793  53.2140 250.8439 0002056  48.5707  74.5409 15.08830518  1301,6917.909000000002,95.438,541.197,538.352,0.0
